{
  "type": "FeatureCollection",
  "features": [
    {
      "type": "Feature",
      "properties": {
        "norad_id": 37867,
        "name": "COSMOS 2476 (744)",
        "group": "glo-ops",
        "lat": -51.54557036266979,
        "lon": -65.35153039596338,
        "alt_km": 19073.94185224598,
        "timestamp": "2025-12-16T17:51:11.192349+00:00",
        "meta_object_name": "COSMOS 2476 (744)",
        "meta_object_id": "2011-064A",
        "meta_epoch": "2025-12-16T10:28:18.881760",
        "meta_mean_motion": 2.13101449,
        "meta_eccentricity": 0.002435,
        "meta_inclination": 65.164,
        "meta_ra_of_asc_node": 79.0464,
        "meta_arg_of_pericenter": 234.7014,
        "meta_mean_anomaly": 128.9307,
        "meta_ephemeris_type": 0,
        "meta_classification_type": "U",
        "meta_norad_cat_id": 37867,
        "meta_element_set_no": 999,
        "meta_rev_at_epoch": 10987,
        "meta_bstar": 0,
        "meta_mean_motion_dot": -5.4e-07,
        "meta_mean_motion_ddot": 0,
        "tle_line1": "1 37867U 11064A   25350.43632965 -.00000054  00000+0  00000+0 0  9994",
        "tle_line2": "2 37867  65.1640  79.0464 0024350 234.7014 128.9307  2.13101449109870"
      },
      "geometry": {
        "type": "Point",
        "coordinates": [
          -65.35153039596338,
          -51.54557036266979
        ]
      }
    },
    {
      "type": "Feature",
      "properties": {
        "norad_id": 37868,
        "name": "COSMOS 2477 (745)",
        "group": "glo-ops",
        "lat": 52.19124112005729,
        "lon": 115.68040561292432,
        "alt_km": 19177.585329638434,
        "timestamp": "2025-12-16T17:51:11.192360+00:00",
        "meta_object_name": "COSMOS 2477 (745)",
        "meta_object_id": "2011-064B",
        "meta_epoch": "2025-12-15T06:06:12.573216",
        "meta_mean_motion": 2.1310289,
        "meta_eccentricity": 0.00211455,
        "meta_inclination": 65.1707,
        "meta_ra_of_asc_node": 79.1637,
        "meta_arg_of_pericenter": 234.5873,
        "meta_mean_anomaly": 123.1925,
        "meta_ephemeris_type": 0,
        "meta_classification_type": "U",
        "meta_norad_cat_id": 37868,
        "meta_element_set_no": 999,
        "meta_rev_at_epoch": 10983,
        "meta_bstar": 0,
        "meta_mean_motion_dot": -5.6e-07,
        "meta_mean_motion_ddot": 0,
        "tle_line1": "1 37868U 11064B   25349.25431219 -.00000056  00000+0  00000+0 0  9994",
        "tle_line2": "2 37868  65.1707  79.1637 0021145 234.5873 123.1925  2.13102890109838"
      },
      "geometry": {
        "type": "Point",
        "coordinates": [
          115.68040561292432,
          52.19124112005729
        ]
      }
    },
    {
      "type": "Feature",
      "properties": {
        "norad_id": 37869,
        "name": "COSMOS 2475 (743)",
        "group": "glo-ops",
        "lat": 15.100527207692444,
        "lon": 86.30215973149599,
        "alt_km": 19169.798914224277,
        "timestamp": "2025-12-16T17:51:11.192372+00:00",
        "meta_object_name": "COSMOS 2475 (743)",
        "meta_object_id": "2011-064C",
        "meta_epoch": "2025-12-15T18:53:44.988864",
        "meta_mean_motion": 2.13101578,
        "meta_eccentricity": 0.00263291,
        "meta_inclination": 65.178,
        "meta_ra_of_asc_node": 79.1657,
        "meta_arg_of_pericenter": 248.6854,
        "meta_mean_anomaly": 113.9368,
        "meta_ephemeris_type": 0,
        "meta_classification_type": "U",
        "meta_norad_cat_id": 37869,
        "meta_element_set_no": 999,
        "meta_rev_at_epoch": 10986,
        "meta_bstar": 0,
        "meta_mean_motion_dot": -5.6e-07,
        "meta_mean_motion_ddot": 0,
        "tle_line1": "1 37869U 11064C   25349.78732626 -.00000056  00000+0  00000+0 0  9999",
        "tle_line2": "2 37869  65.1780  79.1657 0026329 248.6854 113.9368  2.13101578109869"
      },
      "geometry": {
        "type": "Point",
        "coordinates": [
          86.30215973149599,
          15.100527207692444
        ]
      }
    },
    {
      "type": "Feature",
      "properties": {
        "norad_id": 39155,
        "name": "COSMOS 2485 (747)",
        "group": "glo-ops",
        "lat": -59.71206529798978,
        "lon": 27.916416858263386,
        "alt_km": 19103.266953311333,
        "timestamp": "2025-12-16T17:51:11.192384+00:00",
        "meta_object_name": "COSMOS 2485 (747)",
        "meta_object_id": "2013-019A",
        "meta_epoch": "2025-12-13T13:15:58.678272",
        "meta_mean_motion": 2.13102947,
        "meta_eccentricity": 0.00246467,
        "meta_inclination": 65.3142,
        "meta_ra_of_asc_node": 79.8396,
        "meta_arg_of_pericenter": 229.7128,
        "meta_mean_anomaly": 130.0848,
        "meta_ephemeris_type": 0,
        "meta_classification_type": "U",
        "meta_norad_cat_id": 39155,
        "meta_element_set_no": 999,
        "meta_rev_at_epoch": 9832,
        "meta_bstar": 0,
        "meta_mean_motion_dot": -4.8e-07,
        "meta_mean_motion_ddot": 0,
        "tle_line1": "1 39155U 13019A   25347.55276248 -.00000048  00000+0  00000+0 0  9998",
        "tle_line2": "2 39155  65.3142  79.8396 0024646 229.7128 130.0848  2.13102947 98326"
      },
      "geometry": {
        "type": "Point",
        "coordinates": [
          27.916416858263386,
          -59.71206529798978
        ]
      }
    },
    {
      "type": "Feature",
      "properties": {
        "norad_id": 39620,
        "name": "COSMOS 2492 (754)",
        "group": "glo-ops",
        "lat": -35.95167604453836,
        "lon": -59.27540246651672,
        "alt_km": 19098.29501478125,
        "timestamp": "2025-12-16T17:51:11.192395+00:00",
        "meta_object_name": "COSMOS 2492 (754)",
        "meta_object_id": "2014-012A",
        "meta_epoch": "2025-12-16T07:50:46.447872",
        "meta_mean_motion": 2.13103282,
        "meta_eccentricity": 0.0014254,
        "meta_inclination": 65.4058,
        "meta_ra_of_asc_node": 320.149,
        "meta_arg_of_pericenter": 313.159,
        "meta_mean_anomaly": 46.7158,
        "meta_ephemeris_type": 0,
        "meta_classification_type": "U",
        "meta_norad_cat_id": 39620,
        "meta_element_set_no": 999,
        "meta_rev_at_epoch": 9134,
        "meta_bstar": 0,
        "meta_mean_motion_dot": -6.8e-07,
        "meta_mean_motion_ddot": 0,
        "tle_line1": "1 39620U 14012A   25350.32692648 -.00000068  00000+0  00000+0 0  9996",
        "tle_line2": "2 39620  65.4058 320.1490 0014254 313.1590  46.7158  2.13103282 91347"
      },
      "geometry": {
        "type": "Point",
        "coordinates": [
          -59.27540246651672,
          -35.95167604453836
        ]
      }
    },
    {
      "type": "Feature",
      "properties": {
        "norad_id": 40001,
        "name": "COSMOS 2500 (755)",
        "group": "glo-ops",
        "lat": -7.046566840224932,
        "lon": 143.13701253443546,
        "alt_km": 19113.316174434338,
        "timestamp": "2025-12-16T17:51:11.192406+00:00",
        "meta_object_name": "COSMOS 2500 (755)",
        "meta_object_id": "2014-032A",
        "meta_epoch": "2025-12-15T13:27:13.709376",
        "meta_mean_motion": 2.1310598,
        "meta_eccentricity": 0.00081492,
        "meta_inclination": 65.3414,
        "meta_ra_of_asc_node": 319.9362,
        "meta_arg_of_pericenter": 219.0671,
        "meta_mean_anomaly": 140.8696,
        "meta_ephemeris_type": 0,
        "meta_classification_type": "U",
        "meta_norad_cat_id": 40001,
        "meta_element_set_no": 999,
        "meta_rev_at_epoch": 8954,
        "meta_bstar": 0,
        "meta_mean_motion_dot": -6.8e-07,
        "meta_mean_motion_ddot": 0,
        "tle_line1": "1 40001U 14032A   25349.56057534 -.00000068  00000+0  00000+0 0  9996",
        "tle_line2": "2 40001  65.3414 319.9362 0008149 219.0671 140.8696  2.13105980 89540"
      },
      "geometry": {
        "type": "Point",
        "coordinates": [
          143.13701253443546,
          -7.046566840224932
        ]
      }
    },
    {
      "type": "Feature",
      "properties": {
        "norad_id": 40315,
        "name": "COSMOS 2501 (702K)",
        "group": "glo-ops",
        "lat": -10.262466362951281,
        "lon": -168.46762826846762,
        "alt_km": 19173.386297424324,
        "timestamp": "2025-12-16T17:51:11.192417+00:00",
        "meta_object_name": "COSMOS 2501 (702K)",
        "meta_object_id": "2014-075A",
        "meta_epoch": "2025-12-14T09:54:07.365600",
        "meta_mean_motion": 2.13101427,
        "meta_eccentricity": 0.00201134,
        "meta_inclination": 63.6139,
        "meta_ra_of_asc_node": 196.7672,
        "meta_arg_of_pericenter": 204.2903,
        "meta_mean_anomaly": 155.6894,
        "meta_ephemeris_type": 0,
        "meta_classification_type": "U",
        "meta_norad_cat_id": 40315,
        "meta_element_set_no": 999,
        "meta_rev_at_epoch": 8591,
        "meta_bstar": 0,
        "meta_mean_motion_dot": 9.7e-07,
        "meta_mean_motion_ddot": 0,
        "tle_line1": "1 40315U 14075A   25348.41258525  .00000097  00000+0  00000+0 0  9998",
        "tle_line2": "2 40315  63.6139 196.7672 0020113 204.2903 155.6894  2.13101427 85910"
      },
      "geometry": {
        "type": "Point",
        "coordinates": [
          -168.46762826846762,
          -10.262466362951281
        ]
      }
    }
  ]
}